{"type": "FeatureCollection", "features": [ {"type": "Feature", "properties": {"norad_id": 30369, "name": "FENGYUN 1C DEB", "group": "fengyun-1c-debris", "lat": 23.85843174277574, "lon": 164.54648254997028, "alt_km": 805.1517558300384, "timestamp": "2025-12-09T04:51:47.769181+00:00", "meta": {"OBJECT_NAME": "FENGYUN 1C DEB", "OBJECT_ID": "1999-025ACG", "EPOCH": "2025-12-08T18:45:40.652064", "MEAN_MOTION": 14.12053368, "ECCENTRICITY": 0.0099033, "INCLINATION": 98.721, "RA_OF_ASC_NODE": 340.2445, "ARG_OF_PERICENTER": 206.7991, "MEAN_ANOMALY": 331.3223, "EPHEMERIS_TYPE": 0, "CLASSIFICATION_TYPE": "U", "NORAD_CAT_ID": 30369, "ELEMENT_SET_NO": 999, "REV_AT_EPOCH": 97190, "BSTAR": 0.00034497, "MEAN_MOTION_DOT": 6.19e-06, "MEAN_MOTION_DDOT": 0}, "tle": {"line1": "1 30369U 99025ACG 25342.78172051  .00000619  00000+0  34497-3 0  9998", "line2": "2 30369  98.7210 340.2445 0099033 206.7991 331.3223 14.12053368971906"}}, "geometry": {"type": "Point", "coordinates": [164.54648254997028, 23.85843174277574]}}, {"type": "Feature", "properties": {"norad_id": 30370, "name": "FENGYUN 1C DEB", "group": "fengyun-1c-debris", "lat": -8.373781349551995, "lon": 40.41929319414803, "alt_km": 766.8258253228914, "timestamp": "2025-12-09T04:51:47.769191+00:00", "meta": {"OBJECT_NAME": "FENGYUN 1C DEB", "OBJECT_ID": "1999-025ACH", "EPOCH": "2025-12-08T15:55:47.006400", "MEAN_MOTION": 14.19120856, "ECCENTRICITY": 0.009926, "INCLINATION": 99.0557, "RA_OF_ASC_NODE": 38.5236, "ARG_OF_PERICENTER": 329.0515, "MEAN_ANOMALY": 150.5154, "EPHEMERIS_TYPE": 0, "CLASSIFICATION_TYPE": "U", "NORAD_CAT_ID": 30370, "ELEMENT_SET_NO": 999, "REV_AT_EPOCH": 97036, "BSTAR": 0.0018837, "MEAN_MOTION_DOT": 4.093e-05, "MEAN_MOTION_DDOT": 0}, "tle": {"line1": "1 30370U 99025ACH 25342.66373850  .00004093  00000+0  18837-2 0  9996", "line2": "2 30370  99.0557  38.5236 0099260 329.0515 150.5154 14.19120856970361"}}, "geometry": {"type": "Point", "coordinates": [40.41929319414803, -8.373781349551995]}}, {"type": "Feature", "properties": {"norad_id": 30371, "name": "FENGYUN 1C DEB", "group": "fengyun-1c-debris", "lat": -47.053888133464085, "lon": -163.07439501504064, "alt_km": 800.3826989362997, "timestamp": "2025-12-09T04:51:47.769201+00:00", "meta": {"OBJECT_NAME": "FENGYUN 1C DEB", "OBJECT_ID": "1999-025ACJ", "EPOCH": "2025-12-08T14:55:35.760288", "MEAN_MOTION": 14.30200332, "ECCENTRICITY": 0.0007032, "INCLINATION": 98.576, "RA_OF_ASC_NODE": 25.684, "ARG_OF_PERICENTER": 350.0652, "MEAN_ANOMALY": 129.5418, "EPHEMERIS_TYPE": 0, "CLASSIFICATION_TYPE": "U", "NORAD_CAT_ID": 30371, "ELEMENT_SET_NO": 999, "REV_AT_EPOCH": 97844, "BSTAR": 0.0017306, "MEAN_MOTION_DOT": 4.442e-05, "MEAN_MOTION_DDOT": 0}, "tle": {"line1": "1 30371U 99025ACJ 25342.62194167  .00004442  00000+0  17306-2 0  9993", "line2": "2 30371  98.5760  25.6840 0007032 350.0652 129.5418 14.30200332978449"}}, "geometry": {"type": "Point", "coordinates": [-163.07439501504064, -47.053888133464085]}}, {"type": "Feature", "properties": {"norad_id": 30374, "name": "FENGYUN 1C DEB", "group": "fengyun-1c-debris", "lat": -76.90745867291928, "lon": -109.06223639125535, "alt_km": 701.4187269948497, "timestamp": "2025-12-09T04:51:47.769211+00:00", "meta": {"OBJECT_NAME": "FENGYUN 1C DEB", "OBJECT_ID": "1999-025ACM", "EPOCH": "2025-12-08T14:44:22.895232", "MEAN_MOTION": 14.61175633, "ECCENTRICITY": 0.003923, "INCLINATION": 99.2723, "RA_OF_ASC_NODE": 205.6555, "ARG_OF_PERICENTER": 180.9111, "MEAN_ANOMALY": 244.1594, "EPHEMERIS_TYPE": 0, "CLASSIFICATION_TYPE": "U", "NORAD_CAT_ID": 30374, "ELEMENT_SET_NO": 999, "REV_AT_EPOCH": 98862, "BSTAR": 0.002172, "MEAN_MOTION_DOT": 0.00010768, "MEAN_MOTION_DDOT": 0}, "tle": {"line1": "1 30374U 99025ACM 25342.61415388  .00010768  00000+0  21720-2 0  9999", "line2": "2 30374  99.2723 205.6555 0039230 180.9111 244.1594 14.61175633988626"}}, "geometry": {"type": "Point", "coordinates": [-109.06223639125535, -76.90745867291928]}}, {"type": "Feature", "properties": {"norad_id": 30377, "name": "FENGYUN 1C DEB", "group": "fengyun-1c-debris", "lat": 34.11976725950091, "lon": -171.1120173925286, "alt_km": 950.5199681319345, "timestamp": "2025-12-09T04:51:47.769221+00:00", "meta": {"OBJECT_NAME": "FENGYUN 1C DEB", "OBJECT_ID": "1999-025ACQ", "EPOCH": "2025-12-08T15:00:34.345728", "MEAN_MOTION": 13.99165796, "ECCENTRICITY": 0.0118201, "INCLINATION": 98.8939, "RA_OF_ASC_NODE": 2.2373, "ARG_OF_PERICENTER": 278.1435, "MEAN_ANOMALY": 202.2444, "EPHEMERIS_TYPE": 0, "CLASSIFICATION_TYPE": "U", "NORAD_CAT_ID": 30377, "ELEMENT_SET_NO": 999, "REV_AT_EPOCH": 96149, "BSTAR": 0.000574, "MEAN_MOTION_DOT": 8.39e-06, "MEAN_MOTION_DDOT": 0}, "tle": {"line1": "1 30377U 99025ACQ 25342.62539752  .00000839  00000+0  57400-3 0  9998", "line2": "2 30377  98.8939   2.2373 0118201 278.1435 202.2444 13.99165796961491"}}, "geometry": {"type": "Point", "coordinates": [-171.1120173925286, 34.11976725950091]}}, {"type": "Feature", "properties": {"norad_id": 30379, "name": "FENGYUN 1C DEB", "group": "fengyun-1c-debris", "lat": 28.22259675244256, "lon": -177.20452969142147, "alt_km": 883.9388347498134, "timestamp": "2025-12-09T04:51:47.769231+00:00", "meta": {"OBJECT_NAME": "FENGYUN 1C DEB", "OBJECT_ID": "1999-025ACS", "EPOCH": "2025-12-08T11:52:29.620128", "MEAN_MOTION": 14.08028719, "ECCENTRICITY": 0.00355173, "INCLINATION": 98.7584, "RA_OF_ASC_NODE": 357.3627, "ARG_OF_PERICENTER": 291.4929, "MEAN_ANOMALY": 234.0715, "EPHEMERIS_TYPE": 0, "CLASSIFICATION_TYPE": "U", "NORAD_CAT_ID": 30379, "ELEMENT_SET_NO": 999, "REV_AT_EPOCH": 96757, "BSTAR": 0.00055898371, "MEAN_MOTION_DOT": 9.13e-06, "MEAN_MOTION_DDOT": 0}, "tle": {"line1": "1 30379U 99025ACS 25342.49478727  .00000913  00000+0  55898-3 0  9991", "line2": "2 30379  98.7584 357.3627 0035517 291.4929 234.0715 14.08028719967571"}}, "geometry": {"type": "Point", "coordinates": [-177.20452969142147, 28.22259675244256]}}, {"type": "Feature", "properties": {"norad_id": 30380, "name": "FENGYUN 1C DEB", "group": "fengyun-1c-debris", "lat": 8.10373660918846, "lon": 29.3351969643618, "alt_km": 821.2604287669819, "timestamp": "2025-12-09T04:51:47.769241+00:00", "meta": {"OBJECT_NAME": "FENGYUN 1C DEB", "OBJECT_ID": "1999-025ACT", "EPOCH": "2025-12-08T15:34:52.926816", "MEAN_MOTION": 14.50652068, "ECCENTRICITY": 0.0177357, "INCLINATION": 98.9145, "RA_OF_ASC_NODE": 30.0297, "ARG_OF_PERICENTER": 229.7425, "MEAN_ANOMALY": 128.8144, "EPHEMERIS_TYPE": 0, "CLASSIFICATION_TYPE": "U", "NORAD_CAT_ID": 30380, "ELEMENT_SET_NO": 999, "REV_AT_EPOCH": 99506, "BSTAR": 0.00054007, "MEAN_MOTION_DOT": 2.537e-05, "MEAN_MOTION_DDOT": 0}, "tle": {"line1": "1 30380U 99025ACT 25342.64922369  .00002537  00000+0  54007-3 0  9991", "line2": "2 30380  98.9145  30.0297 0177357 229.7425 128.8144 14.50652068995068"}}, "geometry": {"type": "Point", "coordinates": [29.3351969643618, 8.10373660918846]}}, {"type": "Feature", "properties": {"norad_id": 30381, "name": "FENGYUN 1C DEB", "group": "fengyun-1c-debris", "lat": 80.70889840377853, "lon": -90.25224259978295, "alt_km": 802.6004367036694, "timestamp": "2025-12-09T04:51:47.769251+00:00", "meta": {"OBJECT_NAME": "FENGYUN 1C DEB", "OBJECT_ID": "1999-025ACU", "EPOCH": "2025-12-07T20:08:12.684480", "MEAN_MOTION": 14.12918524, "ECCENTRICITY": 0.00547943, "INCLINATION": 98.8131, "RA_OF_ASC_NODE": 16.9083, "ARG_OF_PERICENTER": 89.9696, "MEAN_ANOMALY": 270.7755, "EPHEMERIS_TYPE": 0, "CLASSIFICATION_TYPE": "U", "NORAD_CAT_ID": 30381, "ELEMENT_SET_NO": 999, "REV_AT_EPOCH": 92097, "BSTAR": 0.0015382529, "MEAN_MOTION_DOT": 2.863e-05, "MEAN_MOTION_DDOT": 0}, "tle": {"line1": "1 30381U 99025ACU 25341.83903570  .00002863  00000+0  15383-2 0  9990", "line2": "2 30381  98.8131  16.9083 0054794  89.9696 270.7755 14.12918524920977"}}, "geometry": {"type": "Point", "coordinates": [-90.25224259978295, 80.70889840377853]}}, {"type": "Feature", "properties": {"norad_id": 30382, "name": "FENGYUN 1C DEB", "group": "fengyun-1c-debris", "lat": -77.46305452435733, "lon": 63.93996403263163, "alt_km": 809.6283098198373, "timestamp": "2025-12-09T04:51:47.769261+00:00", "meta": {"OBJECT_NAME": "FENGYUN 1C DEB", "OBJECT_ID": "1999-025ACV", "EPOCH": "2025-12-08T16:17:58.522848", "MEAN_MOTION": 14.25262689, "ECCENTRICITY": 0.0154979, "INCLINATION": 98.499, "RA_OF_ASC_NODE": 21.1778, "ARG_OF_PERICENTER": 8.9625, "MEAN_ANOMALY": 107.6244, "EPHEMERIS_TYPE": 0, "CLASSIFICATION_TYPE": "U", "NORAD_CAT_ID": 30382, "ELEMENT_SET_NO": 999, "REV_AT_EPOCH": 97477, "BSTAR": 0.0012907, "MEAN_MOTION_DOT": 3.4e-05, "MEAN_MOTION_DDOT": 0}, "tle": {"line1": "1 30382U 99025ACV 25342.67914957  .00003400  00000+0  12907-2 0  9992", "line2": "2 30382  98.4990  21.1778 0154979   8.9625 107.6244 14.25262689974771"}}, "geometry": {"type": "Point", "coordinates": [63.93996403263163, -77.46305452435733]}}, {"type": "Feature", "properties": {"norad_id": 30385, "name": "FENGYUN 1C DEB", "group": "fengyun-1c-debris", "lat": 63.517334840851625, "lon": -15.02768403637762, "alt_km": 806.6806820615348, "timestamp": "2025-12-09T04:51:47.769271+00:00", "meta": {"OBJECT_NAME": "FENGYUN 1C DEB", "OBJECT_ID": "1999-025ACY", "EPOCH": "2025-12-07T20:01:52.707648", "MEAN_MOTION": 14.38772112, "ECCENTRICITY": 0.01248347, "INCLINATION": 99.0822, "RA_OF_ASC_NODE": 2.2527, "ARG_OF_PERICENTER": 304.088, "MEAN_ANOMALY": 238.1478, "EPHEMERIS_TYPE": 0, "CLASSIFICATION_TYPE": "U", "NORAD_CAT_ID": 30385, "ELEMENT_SET_NO": 999, "REV_AT_EPOCH": 98698, "BSTAR": 0.00055914572, "MEAN_MOTION_DOT": 1.827e-05, "MEAN_MOTION_DDOT": 0}, "tle": {"line1": "1 30385U 99025ACY 25341.83463782  .00001827  00000+0  55915-3 0  9995", "line2": "2 30385  99.0822   2.2527 0124834 304.0880 238.1478 14.38772112986983"}}, "geometry": {"type": "Point", "coordinates": [-15.02768403637762, 63.517334840851625]}}]}